{
  "type": "FeatureCollection",
  "features": [
    {
      "type": "Feature",
      "properties": {
        "norad_id": 41599,
        "name": "CARTOSAT-2C",
        "group": "resource",
        "lat": -36.1600383534261,
        "lon": -127.21227458479794,
        "alt_km": 521.3715618390743,
        "timestamp": "2025-12-27T04:40:45.157432+00:00",
        "meta_object_name": "CARTOSAT-2C",
        "meta_object_id": "2016-040A",
        "meta_epoch": "2025-12-26T22:59:14.159328",
        "meta_mean_motion": 15.19246227,
        "meta_eccentricity": 0.00105603,
        "meta_inclination": 97.4747,
        "meta_ra_of_asc_node": 58.0592,
        "meta_arg_of_pericenter": 18.066,
        "meta_mean_anomaly": 342.0948,
        "meta_ephemeris_type": 0,
        "meta_classification_type": "U",
        "meta_norad_cat_id": 41599,
        "meta_element_set_no": 999,
        "meta_rev_at_epoch": 52756,
        "meta_bstar": 0.00021444163,
        "meta_mean_motion_dot": 4.456e-05,
        "meta_mean_motion_ddot": 0,
        "tle_line1": "1 41599U 16040A   25360.95780277  .00004456  00000+0  21444-3 0  9996",
        "tle_line2": "2 41599  97.4747  58.0592 0010560  18.0660 342.0948 15.19246227527564"
      },
      "geometry": {
        "type": "Point",
        "coordinates": [
          -127.21227458479794,
          -36.1600383534261
        ]
      }
    },
    {
      "type": "Feature",
      "properties": {
        "norad_id": 41601,
        "name": "SKYSAT-C1",
        "group": "resource",
        "lat": -71.44690196951721,
        "lon": -164.0191317634852,
        "alt_km": 474.3192404880174,
        "timestamp": "2025-12-27T04:40:45.157442+00:00",
        "meta_object_name": "SKYSAT-C1",
        "meta_object_id": "2016-040C",
        "meta_epoch": "2025-12-26T15:02:45.250368",
        "meta_mean_motion": 15.32840769,
        "meta_eccentricity": 7.875e-05,
        "meta_inclination": 96.9809,
        "meta_ra_of_asc_node": 36.8576,
        "meta_arg_of_pericenter": 308.5435,
        "meta_mean_anomaly": 51.5738,
        "meta_ephemeris_type": 0,
        "meta_classification_type": "U",
        "meta_norad_cat_id": 41601,
        "meta_element_set_no": 999,
        "meta_rev_at_epoch": 53140,
        "meta_bstar": 0.00029479645,
        "meta_mean_motion_dot": 9.28e-05,
        "meta_mean_motion_ddot": 0,
        "tle_line1": "1 41601U 16040C   25360.62691262  .00009280  00000+0  29480-3 0  9997",
        "tle_line2": "2 41601  96.9809  36.8576 0000787 308.5435  51.5738 15.32840769531407"
      },
      "geometry": {
        "type": "Point",
        "coordinates": [
          -164.0191317634852,
          -71.44690196951721
        ]
      }
    },
    {
      "type": "Feature",
      "properties": {
        "norad_id": 41603,
        "name": "LAPAN-A3",
        "group": "resource",
        "lat": -20.774243031054322,
        "lon": 0.9535855584488684,
        "alt_km": 473.7396898259449,
        "timestamp": "2025-12-27T04:40:45.157453+00:00",
        "meta_object_name": "LAPAN-A3",
        "meta_object_id": "2016-040E",
        "meta_epoch": "2025-12-27T00:03:59.804928",
        "meta_mean_motion": 15.31671657,
        "meta_eccentricity": 0.00086373,
        "meta_inclination": 97.1436,
        "meta_ra_of_asc_node": 358.0413,
        "meta_arg_of_pericenter": 274.2018,
        "meta_mean_anomaly": 85.8237,
        "meta_ephemeris_type": 0,
        "meta_classification_type": "U",
        "meta_norad_cat_id": 41603,
        "meta_element_set_no": 999,
        "meta_rev_at_epoch": 52844,
        "meta_bstar": 0.00016858812,
        "meta_mean_motion_dot": 5.086e-05,
        "meta_mean_motion_ddot": 0,
        "tle_line1": "1 41603U 16040E   25361.00277552  .00005086  00000+0  16859-3 0  9990",
        "tle_line2": "2 41603  97.1436 358.0413 0008637 274.2018  85.8237 15.31671657528446"
      },
      "geometry": {
        "type": "Point",
        "coordinates": [
          0.9535855584488684,
          -20.774243031054322
        ]
      }
    },
    {
      "type": "Feature",
      "properties": {
        "norad_id": 41604,
        "name": "BIROS",
        "group": "resource",
        "lat": 82.886294905862,
        "lon": -50.367447984428175,
        "alt_km": 276.28625336855293,
        "timestamp": "2025-12-27T04:40:45.157463+00:00",
        "meta_object_name": "BIROS",
        "meta_object_id": "2016-040F",
        "meta_epoch": "2025-12-26T14:45:38.450304",
        "meta_mean_motion": 15.95497863,
        "meta_eccentricity": 0.000398,
        "meta_inclination": 97.0651,
        "meta_ra_of_asc_node": 32.6597,
        "meta_arg_of_pericenter": 120.7736,
        "meta_mean_anomaly": 239.3933,
        "meta_ephemeris_type": 0,
        "meta_classification_type": "U",
        "meta_norad_cat_id": 41604,
        "meta_element_set_no": 999,
        "meta_rev_at_epoch": 53093,
        "meta_bstar": 0.00064877,
        "meta_mean_motion_dot": 0.00256097,
        "meta_mean_motion_ddot": 2.75e-05,
        "tle_line1": "1 41604U 16040F   25360.61502836  .00256097  27500-4  64877-3 0  9995",
        "tle_line2": "2 41604  97.0651  32.6597 0003980 120.7736 239.3933 15.95497863530932"
      },
      "geometry": {
        "type": "Point",
        "coordinates": [
          -50.367447984428175,
          82.886294905862
        ]
      }
    },
    {
      "type": "Feature",
      "properties": {
        "norad_id": 41727,
        "name": "GAOFEN-3",
        "group": "resource",
        "lat": 26.977527343328333,
        "lon": -169.12382562642975,
        "alt_km": 750.2130795070216,
        "timestamp": "2025-12-27T04:40:45.157474+00:00",
        "meta_object_name": "GAOFEN-3",
        "meta_object_id": "2016-049A",
        "meta_epoch": "2025-12-26T22:58:43.755168",
        "meta_mean_motion": 14.42216677,
        "meta_eccentricity": 0.00010342,
        "meta_inclination": 98.4041,
        "meta_ra_of_asc_node": 6.3265,
        "meta_arg_of_pericenter": 55.2963,
        "meta_mean_anomaly": 304.8324,
        "meta_ephemeris_type": 0,
        "meta_classification_type": "U",
        "meta_norad_cat_id": 41727,
        "meta_element_set_no": 999,
        "meta_rev_at_epoch": 49382,
        "meta_bstar": -2.122806e-06,
        "meta_mean_motion_dot": -5e-07,
        "meta_mean_motion_ddot": 0,
        "tle_line1": "1 41727U 16049A   25360.95745087 -.00000050  00000+0 -21228-5 0  9998",
        "tle_line2": "2 41727  98.4041   6.3265 0001034  55.2963 304.8324 14.42216677493829"
      },
      "geometry": {
        "type": "Point",
        "coordinates": [
          -169.12382562642975,
          26.977527343328333
        ]
      }
    },
    {
      "type": "Feature",
      "properties": {
        "norad_id": 41771,
        "name": "SKYSAT-C4",
        "group": "resource",
        "lat": -26.250743659002584,
        "lon": 29.123738424535738,
        "alt_km": 445.5457264737179,
        "timestamp": "2025-12-27T04:40:45.157484+00:00",
        "meta_object_name": "SKYSAT-C4",
        "meta_object_id": "2016-058B",
        "meta_epoch": "2025-12-26T13:13:33.091680",
        "meta_mean_motion": 15.4264534,
        "meta_eccentricity": 0.0002638,
        "meta_inclination": 96.9364,
        "meta_ra_of_asc_node": 25.0687,
        "meta_arg_of_pericenter": 121.6623,
        "meta_mean_anomaly": 238.4883,
        "meta_ephemeris_type": 0,
        "meta_classification_type": "U",
        "meta_norad_cat_id": 41771,
        "meta_element_set_no": 999,
        "meta_rev_at_epoch": 51880,
        "meta_bstar": 0.00036601,
        "meta_mean_motion_dot": 0.00015874,
        "meta_mean_motion_ddot": 0,
        "tle_line1": "1 41771U 16058B   25360.55107745  .00015874  00000+0  36601-3 0  9993",
        "tle_line2": "2 41771  96.9364  25.0687 0002638 121.6623 238.4883 15.42645340518809"
      },
      "geometry": {
        "type": "Point",
        "coordinates": [
          29.123738424535738,
          -26.250743659002584
        ]
      }
    },
    {
      "type": "Feature",
      "properties": {
        "norad_id": 41772,
        "name": "SKYSAT-C5",
        "group": "resource",
        "lat": 6.005861877357414,
        "lon": -134.90978517649947,
        "alt_km": 463.9090322648999,
        "timestamp": "2025-12-27T04:40:45.157494+00:00",
        "meta_object_name": "SKYSAT-C5",
        "meta_object_id": "2016-058C",
        "meta_epoch": "2025-12-26T16:57:56.362176",
        "meta_mean_motion": 15.34129911,
        "meta_eccentricity": 0.0004076,
        "meta_inclination": 97.0741,
        "meta_ra_of_asc_node": 43.8739,
        "meta_arg_of_pericenter": 223.4884,
        "meta_mean_anomaly": 136.6039,
        "meta_ephemeris_type": 0,
        "meta_classification_type": "U",
        "meta_norad_cat_id": 41772,
        "meta_element_set_no": 999,
        "meta_rev_at_epoch": 51730,
        "meta_bstar": 0.00028723181,
        "meta_mean_motion_dot": 9.416e-05,
        "meta_mean_motion_ddot": 0,
        "tle_line1": "1 41772U 16058C   25360.70690234  .00009416  00000+0  28723-3 0  9992",
        "tle_line2": "2 41772  97.0741  43.8739 0004076 223.4884 136.6039 15.34129911517303"
      },
      "geometry": {
        "type": "Point",
        "coordinates": [
          -134.90978517649947,
          6.005861877357414
        ]
      }
    }
  ]
}